{"type":"FeatureCollection","features":[{"type":"Feature","id":"maerkte_opendata.1","geometry":{"type":"Point","coordinates":[691249.38850083,5335843.31039799]},"geometry_name":"shape","properties":{"inhalt":"Bauernmarkt Maxvorstadt, Pinakothek der Moderne, Öffnungszeiten: Samstag, 07:00 – 13:00","adresse":"Barerstraße/Gabelsbergerstraße","link":"https://www.muenchner-bauernmaerkte.de/","lebenslage":"Einkaufen und Dienstleistungen","rubrik":"Bauernmarkt","gemeinde":"München"}},{"type":"Feature","id":"maerkte_opendata.2","geometry":{"type":"Point","coordinates":[692898.28260086,5338770.26479788]},"geometry_name":"shape","properties":{"inhalt":"Bauernmarkt Schwabing,Öffnungszeiten: Samstag, 07:00 – 13:00","adresse":"Fritz-Hommel-Weg ","link":"https://www.muenchner-bauernmaerkte.de/","lebenslage":"Einkaufen und Dienstleistungen","rubrik":"Bauernmarkt","gemeinde":"München"}},{"type":"Feature","id":"maerkte_opendata.3","geometry":{"type":"Point","coordinates":[688863.31770078,5334328.01079814]},"geometry_name":"shape","properties":{"inhalt":"Bauernmarkt Schwanthalerhöhe, Öffnungszeiten: Donnerstag, 10:00 – 18:00","adresse":"Georg-Freundorfer-Platz","link":"https://www.muenchner-bauernmaerkte.de/","lebenslage":"Einkaufen und Dienstleistungen","rubrik":"Bauernmarkt","gemeinde":"München"}},{"type":"Feature","id":"maerkte_opendata.4","geometry":{"type":"Point","coordinates":[692469.47800086,5335101.67089791]},"geometry_name":"shape","properties":{"inhalt":"Bauernmarkt Lehel, Öffnungszeiten: Donnerstag, 10:30 – 18:00","adresse":"St.-Anna-Platz","link":"https://www.muenchner-bauernmaerkte.de/","lebenslage":"Einkaufen und Dienstleistungen","rubrik":"Bauernmarkt","gemeinde":"München"}},{"type":"Feature","id":"maerkte_opendata.5","geometry":{"type":"Point","coordinates":[685936.62290072,5334807.5453983]},"geometry_name":"shape","properties":{"inhalt":"Bauernmarkt Laim, Öffnungszeiten: Freitag, 07:30 – 13:00","adresse":"Agnes-Bernauer-Straße (Am Laimer Anger)","link":"https://www.muenchner-bauernmaerkte.de/","lebenslage":"Einkaufen und Dienstleistungen","rubrik":"Bauernmarkt","gemeinde":"München"}},{"type":"Feature","id":"maerkte_opendata.6","geometry":{"type":"Point","coordinates":[682093.33610065,5337296.41249848]},"geometry_name":"shape","properties":{"inhalt":"Bauernmarkt Obermenzing, Öffnungszeiten: Freitag, 07:30 – 13:00","adresse":"Rüttenauer Platz","link":"https://www.muenchner-bauernmaerkte.de/","lebenslage":"Einkaufen und Dienstleistungen","rubrik":"Bauernmarkt","gemeinde":"München"}},{"type":"Feature","id":"maerkte_opendata.7","geometry":{"type":"Point","coordinates":[690897.68740082,5336784.12259801]},"geometry_name":"shape","properties":{"inhalt":"Bauernmarkt Maxvorstadt, Öffnungszeiten: Dienstag, 11:00 – 18:00","adresse":"Josephsplatz","link":"https://www.muenchner-bauernmaerkte.de/","lebenslage":"Einkaufen und Dienstleistungen","rubrik":"Bauernmarkt","gemeinde":"München"}},{"type":"Feature","id":"maerkte_opendata.8","geometry":{"type":"Point","coordinates":[692211.84350085,5330401.97419794]},"geometry_name":"shape","properties":{"inhalt":"Bauernmarkt Harlaching, Öffnungszeiten: Mittwoch 14:00 – 18:00","adresse":"Mangfallplatz","link":"https://www.muenchner-bauernmaerkte.de/","lebenslage":"Einkaufen und Dienstleistungen","rubrik":"Bauernmarkt","gemeinde":"München"}},{"type":"Feature","id":"maerkte_opendata.9","geometry":{"type":"Point","coordinates":[689887.4577008,5336332.54289808]},"geometry_name":"shape","properties":{"inhalt":"Bauernmarkt Maxvorstadt, St. Benno Kirche, Öffnungszeiten: Dienstag, 10:00 – 18:00","adresse":"Ferdinand-Miller-Platz (St.-Benno-Kirche)","link":"https://www.muenchner-bauernmaerkte.de/","lebenslage":"Einkaufen und Dienstleistungen","rubrik":"Bauernmarkt","gemeinde":"München"}},{"type":"Feature","id":"maerkte_opendata.10","geometry":{"type":"Point","coordinates":[692193.03890085,5333446.80439793]},"geometry_name":"shape","properties":{"inhalt":"Bauernmarkt Au, Öffnungszeiten: Mittwoch, 07:00 – 13:00","adresse":"Mariahilfplatz","link":"https://www.muenchner-bauernmaerkte.de/","lebenslage":"Einkaufen und Dienstleistungen","rubrik":"Bauernmarkt","gemeinde":"München"}},{"type":"Feature","id":"maerkte_opendata.11","geometry":{"type":"Point","coordinates":[690265.76350081,5333134.63229806]},"geometry_name":"shape","properties":{"inhalt":"Markthallen München - Schlacht- und Viehhof","adresse":"Zenettistraße 10","link":"https://stadt.muenchen.de/infos/markthallen-muenchen.html","lebenslage":"Einkaufen und Dienstleistungen","rubrik":"Großmarkt","gemeinde":"München"}},{"type":"Feature","id":"maerkte_opendata.12","geometry":{"type":"Point","coordinates":[690041.8879008,5332754.06049807]},"geometry_name":"shape","properties":{"inhalt":"Markthallen München - Großmarkthalle","adresse":"Schäftlarnstraße 10","link":"https://stadt.muenchen.de/infos/markthallen-muenchen.html","lebenslage":"Einkaufen und Dienstleistungen","rubrik":"Großmarkt","gemeinde":"München"}},{"type":"Feature","id":"maerkte_opendata.13","geometry":{"type":"Point","coordinates":[689929.0493008,5332670.60279808]},"geometry_name":"shape","properties":{"inhalt":"Markthallen München - Gärtnerhalle ","adresse":"Schäftlarnstraße 10","link":"https://stadt.muenchen.de/infos/markthallen-muenchen.html","lebenslage":"Einkaufen und Dienstleistungen","rubrik":"Großmarkt","gemeinde":"München"}},{"type":"Feature","id":"maerkte_opendata.14","geometry":{"type":"Point","coordinates":[690133.31950081,5332483.91319807]},"geometry_name":"shape","properties":{"inhalt":"Großmarktgelände München","adresse":"Thalkirchner Straße","link":"https://stadt.muenchen.de/infos/markthallen-muenchen.html","lebenslage":"Einkaufen und Dienstleistungen","rubrik":"Großmarkt","gemeinde":"München"}},{"type":"Feature","id":"maerkte_opendata.15","geometry":{"type":"Point","coordinates":[690277.43210081,5332582.54819806]},"geometry_name":"shape","properties":{"inhalt":"Blumengroßmarkt - Markthallen München","adresse":"Schäftlarnstraße 2","link":"http://www.blumengrossmarkt-muenchen.de/","lebenslage":"Einkaufen und Dienstleistungen","rubrik":"Großmarkt","gemeinde":"München"}},{"type":"Feature","id":"maerkte_opendata.16","geometry":{"type":"Point","coordinates":[683117.75550067,5335596.52659844]},"geometry_name":"shape","properties":{"inhalt":"Pasinger Viktualienmarkt","adresse":"Bäckerstraße","link":"http://www.muenchen.de/rathaus/Stadtverwaltung/Kommunalreferat/markthallen/pasingermarkt.html","lebenslage":"Einkaufen und Dienstleistungen","rubrik":"Ständiger Markt","gemeinde":"München"}},{"type":"Feature","id":"maerkte_opendata.17","geometry":{"type":"Point","coordinates":[693150.10760087,5334516.83499787]},"geometry_name":"shape","properties":{"inhalt":"Wiener Markt (Markt am Wiener Platz)","adresse":"Wiener Platz","link":"http://www.muenchen.de/rathaus/Stadtverwaltung/Kommunalreferat/markthallen/wienermarkt.html","lebenslage":"Einkaufen und Dienstleistungen","rubrik":"Ständiger Markt","gemeinde":"München"}},{"type":"Feature","id":"maerkte_opendata.18","geometry":{"type":"Point","coordinates":[691546.12830084,5334446.03309798]},"geometry_name":"shape","properties":{"inhalt":"Schrannenhalle","adresse":"Blumenstraße 4","link":"https://www.viktualienmarkt-muenchen.de/schrannenhalle/","lebenslage":"Einkaufen und Dienstleistungen","rubrik":"Ständiger Markt","gemeinde":"München"}},{"type":"Feature","id":"maerkte_opendata.19","geometry":{"type":"Point","coordinates":[691444.61800083,5336944.09559798]},"geometry_name":"shape","properties":{"inhalt":"Elisabethmarkt (Markt am Elisabethplatz)","adresse":"Elisabethplatz","link":"http://www.muenchen.de/rathaus/Stadtverwaltung/Kommunalreferat/markthallen/elisabethmarkt.html","lebenslage":"Einkaufen und Dienstleistungen","rubrik":"Ständiger Markt","gemeinde":"München"}},{"type":"Feature","id":"maerkte_opendata.20","geometry":{"type":"Point","coordinates":[691677.14500084,5334525.20929797]},"geometry_name":"shape","properties":{"inhalt":"Viktualienmarkt","adresse":"Viktualienmarkt (Stadtzentrum)","link":"http://www.muenchen.de/sehenswuerdigkeiten/orte/120340.html","lebenslage":"Einkaufen und Dienstleistungen","rubrik":"Ständiger Markt","gemeinde":"München"}},{"type":"Feature","id":"maerkte_opendata.21","geometry":{"type":"Point","coordinates":[700232.08860104,5334537.26399732]},"geometry_name":"shape","properties":{"inhalt":"Wochenmarkt Messestadt Riem, Öffnungszeiten: Freitag, 10:00 - 18:00","adresse":"Willy-Brandt-Platz","link":"https://www.muenchnerwochenmaerkte.de/","lebenslage":"Einkaufen und Dienstleistungen","rubrik":"Wochenmarkt","gemeinde":"München"}},{"type":"Feature","id":"maerkte_opendata.22","geometry":{"type":"Point","coordinates":[693670.37580088,5341976.07919782]},"geometry_name":"shape","properties":{"inhalt":"Wochenmarkt Freimann, Öffnungszeiten: Mittwoch, 13:00 - 18:00","adresse":"Karl-Köglsbergerstraße  17-23","link":"http://www.muenchen.de/rathaus/Stadtverwaltung/Kommunalreferat/markthallen/wochenmaerkte.html","lebenslage":"Einkaufen und Dienstleistungen","rubrik":"Wochenmarkt","gemeinde":"München"}},{"type":"Feature","id":"maerkte_opendata.23","geometry":{"type":"Point","coordinates":[684502.56680069,5331990.04059838]},"geometry_name":"shape","properties":{"inhalt":"Wochenmarkt Großhadern, Öffnungszeiten: Mittwoch, 13:00 - 18:00","adresse":"Heiglhofstraße 1-11","link":"https://www.muenchnerwochenmaerkte.de/","lebenslage":"Einkaufen und Dienstleistungen","rubrik":"Wochenmarkt","gemeinde":"München"}},{"type":"Feature","id":"maerkte_opendata.24","geometry":{"type":"Point","coordinates":[690109.5609008,5337690.32339806]},"geometry_name":"shape","properties":{"inhalt":"Wochenmarkt Schwabing-West, Öffnungszeiten: Freitag, 13:00 - 18:00","adresse":"Petra-Kelly-Straße","link":"https://www.muenchnerwochenmaerkte.de/","lebenslage":"Einkaufen und Dienstleistungen","rubrik":"Wochenmarkt","gemeinde":"München"}},{"type":"Feature","id":"maerkte_opendata.25","geometry":{"type":"Point","coordinates":[689748.0233008,5332061.77609809]},"geometry_name":"shape","properties":{"inhalt":"Wochenmarkt Untersendling (Resi-Huber-Platz), Öffnungszeiten: Samstag, 07:00 - 13:00","adresse":"Resi-Huber-Platz","link":"https://www.muenchnerwochenmaerkte.de/","lebenslage":"Einkaufen und Dienstleistungen","rubrik":"Wochenmarkt","gemeinde":"München"}},{"type":"Feature","id":"maerkte_opendata.26","geometry":{"type":"Point","coordinates":[693197.34800087,5329776.60849788]},"geometry_name":"shape","properties":{"inhalt":"Wochenmarkt Fasangarten, Öffnungszeiten: Mittwoch, 12:00 - 18:00","adresse":"Cincinnatistraße 31, hinter dem Kino","link":"https://www.muenchnerwochenmaerkte.de/","lebenslage":"Einkaufen und Dienstleistungen","rubrik":"Wochenmarkt","gemeinde":"München"}},{"type":"Feature","id":"maerkte_opendata.27","geometry":{"type":"Point","coordinates":[695861.53080093,5330811.96799768]},"geometry_name":"shape","properties":{"inhalt":"Wochenmarkt Perlach, Öffnungszeiten: Samstag, 07:00 - 13:00","adresse":"Pfanzeltplatz","link":"https://www.muenchnerwochenmaerkte.de/","lebenslage":"Einkaufen und Dienstleistungen","rubrik":"Wochenmarkt","gemeinde":"München"}},{"type":"Feature","id":"maerkte_opendata.28","geometry":{"type":"Point","coordinates":[693187.59430087,5333848.74799787]},"geometry_name":"shape","properties":{"inhalt":"Wochenmarkt Haidhausen, Öffnungszeiten: Dienstag, 08:00 - 12:00","adresse":"Weißenburger Straße 2-10","link":"https://www.muenchnerwochenmaerkte.de/","lebenslage":"Einkaufen und Dienstleistungen","rubrik":"Wochenmarkt","gemeinde":"München"}},{"type":"Feature","id":"maerkte_opendata.29","geometry":{"type":"Point","coordinates":[692371.83250085,5337700.25409791]},"geometry_name":"shape","properties":{"inhalt":"Wochenmarkt Schwabing, Öffnungszeiten: Donnerstag, 10:00 - 18:00","adresse":"Münchner Freiheit","link":"https://www.muenchnerwochenmaerkte.de/","lebenslage":"Einkaufen und Dienstleistungen","rubrik":"Wochenmarkt","gemeinde":"München"}},{"type":"Feature","id":"maerkte_opendata.30","geometry":{"type":"Point","coordinates":[688954.26280078,5332781.90009814]},"geometry_name":"shape","properties":{"inhalt":"Wochenmarkt Untersendling (Margaretenplatz), Öffnungszeiten: Samstag, 07:00 - 13:00","adresse":"Margaretenplatz","link":"https://www.muenchnerwochenmaerkte.de/","lebenslage":"Einkaufen und Dienstleistungen","rubrik":"Wochenmarkt","gemeinde":"München"}},{"type":"Feature","id":"maerkte_opendata.31","geometry":{"type":"Point","coordinates":[695803.44950093,5334018.46999768]},"geometry_name":"shape","properties":{"inhalt":"Wochenmarkt Berg am Laim, Öffnungszeiten: Freitag, 08:00 - 12:00","adresse":"Baumkirchner Straße 22b-26","link":"https://www.muenchnerwochenmaerkte.de/","lebenslage":"Einkaufen und Dienstleistungen","rubrik":"Wochenmarkt","gemeinde":"München"}},{"type":"Feature","id":"maerkte_opendata.32","geometry":{"type":"Point","coordinates":[688641.79990077,5343138.91989814]},"geometry_name":"shape","properties":{"inhalt":"Wochenmarkt Feldmoching, Öffnungszeiten: Freitag, 13:00 - 18:00","adresse":"Walter-Sedlmayr-Platz","link":"https://www.muenchnerwochenmaerkte.de/","lebenslage":"Einkaufen und Dienstleistungen","rubrik":"Wochenmarkt","gemeinde":"München"}},{"type":"Feature","id":"maerkte_opendata.33","geometry":{"type":"Point","coordinates":[692196.18750085,5333450.74449794]},"geometry_name":"shape","properties":{"inhalt":"Wochenmarkt Au, Öffnungszeiten: Samstag, 07:00 - 13:00","adresse":"Mariahilfplatz","link":"http://www.muenchen.de/rathaus/Stadtverwaltung/Kommunalreferat/markthallen/wochenmaerkte.html","lebenslage":"Einkaufen und Dienstleistungen","rubrik":"Wochenmarkt","gemeinde":"München"}},{"type":"Feature","id":"maerkte_opendata.34","geometry":{"type":"Point","coordinates":[686307.45760073,5339257.46519827]},"geometry_name":"shape","properties":{"inhalt":"Wochenmarkt Moosach, Öffnungszeiten: Donnerstag, 08:00 - 12:00","adresse":"Bunzlauer Platz","link":"https://www.muenchnerwochenmaerkte.de/","lebenslage":"Einkaufen und Dienstleistungen","rubrik":"Wochenmarkt","gemeinde":"München"}},{"type":"Feature","id":"maerkte_opendata.35","geometry":{"type":"Point","coordinates":[685850.74350072,5329899.31389831]},"geometry_name":"shape","properties":{"inhalt":"Wochenmarkt Fürstenried-Ost, Öffnungszeiten: Mittwoch, 13:00 - 18:00","adresse":"Züricher Straße, Ecke Winterthurer Straße","link":"https://www.muenchnerwochenmaerkte.de/","lebenslage":"Einkaufen und Dienstleistungen","rubrik":"Wochenmarkt","gemeinde":"München"}},{"type":"Feature","id":"maerkte_opendata.36","geometry":{"type":"Point","coordinates":[684219.00110069,5333353.22529839]},"geometry_name":"shape","properties":{"inhalt":"Wochenmarkt Blumenau, Öffnungszeiten: Mittwoch, 08:00 - 12:00","adresse":"Blumenauer Straße 2-16","link":"https://www.muenchnerwochenmaerkte.de/","lebenslage":"Einkaufen und Dienstleistungen","rubrik":"Wochenmarkt","gemeinde":"München"}},{"type":"Feature","id":"maerkte_opendata.37","geometry":{"type":"Point","coordinates":[696620.33620095,5331055.85319763]},"geometry_name":"shape","properties":{"inhalt":"Wochenmarkt Neuperlach, Öffnungszeiten: Freitag, 13:00 - 18:00","adresse":"Theodor-Heuss-Platz","link":"https://www.muenchnerwochenmaerkte.de/","lebenslage":"Einkaufen und Dienstleistungen","rubrik":"Wochenmarkt","gemeinde":"München"}},{"type":"Feature","id":"maerkte_opendata.38","geometry":{"type":"Point","coordinates":[688749.98890078,5335410.51359814]},"geometry_name":"shape","properties":{"inhalt":"Wochenmarkt Neuhausen (Arnulfpark), Öffnungszeiten: Freitag, 10:00 - 18:00","adresse":"Rainer-Werner-Fassbinder-Platz","link":"https://www.muenchnerwochenmaerkte.de/","lebenslage":"Einkaufen und Dienstleistungen","rubrik":"Wochenmarkt","gemeinde":"München"}},{"type":"Feature","id":"maerkte_opendata.39","geometry":{"type":"Point","coordinates":[688412.24940077,5336377.97759816]},"geometry_name":"shape","properties":{"inhalt":"Wochenmarkt Neuhausen, Öffnungszeiten: Donnerstag, 10:00 - 19:00","adresse":"Rotkreuzplatz ","link":"https://www.muenchnerwochenmaerkte.de/","lebenslage":"Einkaufen und Dienstleistungen","rubrik":"Wochenmarkt","gemeinde":"München"}},{"type":"Feature","id":"maerkte_opendata.40","geometry":{"type":"Point","coordinates":[694773.49920091,5336564.79889775]},"geometry_name":"shape","properties":{"inhalt":"Wochenmarkt Bogenhausen, Öffnungszeiten: Donnerstag, 08:00 - 18:00","adresse":"Rosenkavalierplatz","link":"https://www.muenchnerwochenmaerkte.de/","lebenslage":"Einkaufen und Dienstleistungen","rubrik":"Wochenmarkt","gemeinde":"München"}},{"type":"Feature","id":"maerkte_opendata.41","geometry":{"type":"Point","coordinates":[687906.16980076,5331772.3417982]},"geometry_name":"shape","properties":{"inhalt":"Wochenmarkt Sendling, Öffnungszeiten: Mittwoch, 08:00 - 12:00","adresse":"Jean-Paul-Richter-Straße 9-19, Ecke Höltystraße","link":"https://www.muenchnerwochenmaerkte.de/","lebenslage":"Einkaufen und Dienstleistungen","rubrik":"Wochenmarkt","gemeinde":"München"}},{"type":"Feature","id":"maerkte_opendata.42","geometry":{"type":"Point","coordinates":[689951.3970008,5343188.83789806]},"geometry_name":"shape","properties":{"inhalt":"Wochenmarkt Hasenbergl, Öffnungszeiten: Donnerstag, 08:00 - 12:00","adresse":"Blodigstraße 4","link":"https://www.muenchnerwochenmaerkte.de/","lebenslage":"Einkaufen und Dienstleistungen","rubrik":"Wochenmarkt","gemeinde":"München"}},{"type":"Feature","id":"maerkte_opendata.43","geometry":{"type":"Point","coordinates":[685345.84290071,5332485.64969833]},"geometry_name":"shape","properties":{"inhalt":"Wochenmarkt Hadern, Öffnungszeiten: Samstag, 07:00 - 13:00","adresse":"Guardinistraße 90-120","link":"https://www.muenchnerwochenmaerkte.de/","lebenslage":"Einkaufen und Dienstleistungen","rubrik":"Wochenmarkt","gemeinde":"München"}},{"type":"Feature","id":"maerkte_opendata.44","geometry":{"type":"Point","coordinates":[690847.60190082,5339760.35769801]},"geometry_name":"shape","properties":{"inhalt":"Wochenmarkt Milbertshofen, Öffnungszeiten: Freitag, 13:00 - 18:00","adresse":"Curt-Mezger-Platz","link":"https://www.muenchnerwochenmaerkte.de/","lebenslage":"Einkaufen und Dienstleistungen","rubrik":"Wochenmarkt","gemeinde":"München"}},{"type":"Feature","id":"maerkte_opendata.45","geometry":{"type":"Point","coordinates":[683324.96540067,5340374.33479842]},"geometry_name":"shape","properties":{"inhalt":"Wochenmarkt Allach-Untermenzing, Öffnungszeiten: Dienstag, 10:00 - 18:00","adresse":"Oertelplatz","link":"https://www.muenchnerwochenmaerkte.de/","lebenslage":"Einkaufen und Dienstleistungen","rubrik":"Wochenmarkt","gemeinde":"München"}},{"type":"Feature","id":"maerkte_opendata.46","geometry":{"type":"Point","coordinates":[695894.92750093,5338803.37679766]},"geometry_name":"shape","properties":{"inhalt":"Wochenmarkt Oberföhring, Öffnungszeiten: Freitag, 08:00 - 12:00","adresse":"Fritz-Meyer-Weg 38-46 ","link":"https://www.muenchnerwochenmaerkte.de/","lebenslage":"Einkaufen und Dienstleistungen","rubrik":"Wochenmarkt","gemeinde":"München"}},{"type":"Feature","id":"maerkte_opendata.47","geometry":{"type":"Point","coordinates":[693161.97020087,5331835.35859787]},"geometry_name":"shape","properties":{"inhalt":"Wochenmarkt Giesing, Öffnungszeiten: Freitag, 13:00 - 18:00","adresse":"Giesinger Bahnhofsplatz","link":"https://www.muenchnerwochenmaerkte.de/","lebenslage":"Einkaufen und Dienstleistungen","rubrik":"Wochenmarkt","gemeinde":"München"}},{"type":"Feature","id":"maerkte_opendata.48","geometry":{"type":"Point","coordinates":[688391.70280077,5341666.53509815]},"geometry_name":"shape","properties":{"inhalt":"Wochenmarkt Lerchenauer See, Öffnungszeiten: Freitag, 12:00 - 19:00","adresse":"Lassallestraße/Franz-Fackler-Straße","link":"https://www.muenchnerwochenmaerkte.de/","lebenslage":"Einkaufen und Dienstleistungen","rubrik":"Wochenmarkt","gemeinde":"München"}},{"type":"Feature","id":"maerkte_opendata.49","geometry":{"type":"Point","coordinates":[699166.59490101,5332248.49409742]},"geometry_name":"shape","properties":{"inhalt":"Wochenmarkt Trudering, Öffnungszeiten: Freitag, 13:00 - 18:00","adresse":"Friedenspromenade, (zwischen Hugo-Weiss-Straße und Felicitas-Füss-Straße)","link":"https://www.muenchnerwochenmaerkte.de/","lebenslage":"Einkaufen und Dienstleistungen","rubrik":"Wochenmarkt","gemeinde":"München"}},{"type":"Feature","id":"maerkte_opendata.50","geometry":{"type":"Point","coordinates":[684692.4382007,5329192.29499837]},"geometry_name":"shape","properties":{"inhalt":"Wochenmarkt Fürstenried-West - Mittwoch, Öffnungszeiten: Mittwoch, 13:00 - 18:00","adresse":"Schweizer Platz, Ecke Graubündener Straße","link":"https://www.muenchnerwochenmaerkte.de/","lebenslage":"Einkaufen und Dienstleistungen","rubrik":"Wochenmarkt","gemeinde":"München"}},{"type":"Feature","id":"maerkte_opendata.51","geometry":{"type":"Point","coordinates":[687543.83220075,5327899.65999823]},"geometry_name":"shape","properties":{"inhalt":"Wochenmarkt Solln, Öffnungszeiten: Freitag, 08:00 - 12:00","adresse":"Fellererplatz","link":"https://www.muenchnerwochenmaerkte.de/","lebenslage":"Einkaufen und Dienstleistungen","rubrik":"Wochenmarkt","gemeinde":"München"}},{"type":"Feature","id":"maerkte_opendata.52","geometry":{"type":"Point","coordinates":[689608.9437008,5330628.6098981]},"geometry_name":"shape","properties":{"inhalt":"Wochenmarkt Thalkirchen, Öffnungszeiten: Donnerstag, 13:00 - 18:00","adresse":"Schäftlarnstraße 179","link":"https://www.muenchnerwochenmaerkte.de/","lebenslage":"Einkaufen und Dienstleistungen","rubrik":"Wochenmarkt","gemeinde":"München"}},{"type":"Feature","id":"maerkte_opendata.53","geometry":{"type":"Point","coordinates":[691328.04360083,5332439.50459799]},"geometry_name":"shape","properties":{"inhalt":"Wochenmarkt Untergiesing, Öffnungszeiten: Donnerstag, 12:00 - 18:00","adresse":"Hans-Mielich-Platz","link":"https://www.muenchnerwochenmaerkte.de/","lebenslage":"Einkaufen und Dienstleistungen","rubrik":"Wochenmarkt","gemeinde":"München"}},{"type":"Feature","id":"maerkte_opendata.54","geometry":{"type":"Point","coordinates":[680446.85610062,5336505.16399856]},"geometry_name":"shape","properties":{"inhalt":"Wochenmarkt Aubing-Ost, Öffnungszeiten: Freitag, 13:00 - 18:00","adresse":"Konstanze-Vernon-Straße, Ecke Monica-Bleibtreu-Straße","link":"https://www.muenchnerwochenmaerkte.de/","lebenslage":"Einkaufen und Dienstleistungen","rubrik":"Wochenmarkt","gemeinde":"München"}},{"type":"Feature","id":"maerkte_opendata.55","geometry":{"type":"Point","coordinates":[692099.02700085,5331714.15809795]},"geometry_name":"shape","properties":{"inhalt":"Wochenmarkt Obergiesing, Öffnungszeiten: Dienstag, 12:00 -18:00","adresse":"Ella-Lingens-Platz","link":"https://www.muenchnerwochenmaerkte.de/","lebenslage":"Einkaufen und Dienstleistungen","rubrik":"Wochenmarkt","gemeinde":"München"}}],"totalFeatures":55,"numberMatched":55,"numberReturned":55,"timeStamp":"2024-01-18T13:38:07.066Z","crs":{"type":"name","properties":{"name":"urn:ogc:def:crs:EPSG::25832"}}}