{
"type": "FeatureCollection",
"name": "market",
"features": [
{ "type": "Feature", "id": "maerkte_opendata.1", "geometry_name": "shape", "properties": { "inhalt": "Bauernmarkt Maxvorstadt, Pinakothek der Moderne, Öffnungszeiten: Samstag, 07:00 – 13:00", "adresse": "Barerstraße\/Gabelsbergerstraße", "link": "https:\/\/www.muenchner-bauernmaerkte.de\/", "lebenslage": "Einkaufen und Dienstleistungen", "rubrik": "Bauernmarkt", "gemeinde": "München" }, "geometry": { "type": "Point", "coordinates": [ 11.571228880048006, 48.147063026639984 ] } },
{ "type": "Feature", "id": "maerkte_opendata.2", "geometry_name": "shape", "properties": { "inhalt": "Bauernmarkt Schwabing,Öffnungszeiten: Samstag, 07:00 – 13:00", "adresse": "Fritz-Hommel-Weg ", "link": "https:\/\/www.muenchner-bauernmaerkte.de\/", "lebenslage": "Einkaufen und Dienstleistungen", "rubrik": "Bauernmarkt", "gemeinde": "München" }, "geometry": { "type": "Point", "coordinates": [ 11.594700909577275, 48.172871776921511 ] } },
{ "type": "Feature", "id": "maerkte_opendata.3", "geometry_name": "shape", "properties": { "inhalt": "Bauernmarkt Schwanthalerhöhe, Öffnungszeiten: Donnerstag, 10:00 – 18:00", "adresse": "Georg-Freundorfer-Platz", "link": "https:\/\/www.muenchner-bauernmaerkte.de\/", "lebenslage": "Einkaufen und Dienstleistungen", "rubrik": "Bauernmarkt", "gemeinde": "München" }, "geometry": { "type": "Point", "coordinates": [ 11.538510516589218, 48.134156207169852 ] } },
{ "type": "Feature", "id": "maerkte_opendata.4", "geometry_name": "shape", "properties": { "inhalt": "Bauernmarkt Lehel, Öffnungszeiten: Donnerstag, 10:30 – 18:00", "adresse": "St.-Anna-Platz", "link": "https:\/\/www.muenchner-bauernmaerkte.de\/", "lebenslage": "Einkaufen und Dienstleistungen", "rubrik": "Bauernmarkt", "gemeinde": "München" }, "geometry": { "type": "Point", "coordinates": [ 11.587279699137245, 48.140029364694193 ] } },
{ "type": "Feature", "id": "maerkte_opendata.5", "geometry_name": "shape", "properties": { "inhalt": "Bauernmarkt Laim, Öffnungszeiten: Freitag, 07:30 – 13:00", "adresse": "Agnes-Bernauer-Straße (Am Laimer Anger)", "link": "https:\/\/www.muenchner-bauernmaerkte.de\/", "lebenslage": "Einkaufen und Dienstleistungen", "rubrik": "Bauernmarkt", "gemeinde": "München" }, "geometry": { "type": "Point", "coordinates": [ 11.499421282187683, 48.139328255969161 ] } },
{ "type": "Feature", "id": "maerkte_opendata.6", "geometry_name": "shape", "properties": { "inhalt": "Bauernmarkt Obermenzing, Öffnungszeiten: Freitag, 07:30 – 13:00", "adresse": "Rüttenauer Platz", "link": "https:\/\/www.muenchner-bauernmaerkte.de\/", "lebenslage": "Einkaufen und Dienstleistungen", "rubrik": "Bauernmarkt", "gemeinde": "München" }, "geometry": { "type": "Point", "coordinates": [ 11.448872824950222, 48.162811472801152 ] } },
{ "type": "Feature", "id": "maerkte_opendata.7", "geometry_name": "shape", "properties": { "inhalt": "Bauernmarkt Maxvorstadt, Öffnungszeiten: Dienstag, 11:00 – 18:00", "adresse": "Josephsplatz", "link": "https:\/\/www.muenchner-bauernmaerkte.de\/", "lebenslage": "Einkaufen und Dienstleistungen", "rubrik": "Bauernmarkt", "gemeinde": "München" }, "geometry": { "type": "Point", "coordinates": [ 11.56692737069311, 48.155624600397026 ] } },
{ "type": "Feature", "id": "maerkte_opendata.8", "geometry_name": "shape", "properties": { "inhalt": "Bauernmarkt Harlaching, Öffnungszeiten: Mittwoch 14:00 – 18:00", "adresse": "Mangfallplatz", "link": "https:\/\/www.muenchner-bauernmaerkte.de\/", "lebenslage": "Einkaufen und Dienstleistungen", "rubrik": "Bauernmarkt", "gemeinde": "München" }, "geometry": { "type": "Point", "coordinates": [ 11.581701452416342, 48.097867080236391 ] } },
{ "type": "Feature", "id": "maerkte_opendata.9", "geometry_name": "shape", "properties": { "inhalt": "Bauernmarkt Maxvorstadt, St. Benno Kirche, Öffnungszeiten: Dienstag, 10:00 – 18:00", "adresse": "Ferdinand-Miller-Platz (St.-Benno-Kirche)", "link": "https:\/\/www.muenchner-bauernmaerkte.de\/", "lebenslage": "Einkaufen und Dienstleistungen", "rubrik": "Bauernmarkt", "gemeinde": "München" }, "geometry": { "type": "Point", "coordinates": [ 11.553155737797205, 48.151868246319609 ] } },
{ "type": "Feature", "id": "maerkte_opendata.10", "geometry_name": "shape", "properties": { "inhalt": "Bauernmarkt Au, Öffnungszeiten: Mittwoch, 07:00 – 13:00", "adresse": "Mariahilfplatz", "link": "https:\/\/www.muenchner-bauernmaerkte.de\/", "lebenslage": "Einkaufen und Dienstleistungen", "rubrik": "Bauernmarkt", "gemeinde": "München" }, "geometry": { "type": "Point", "coordinates": [ 11.582821072960918, 48.125239273458682 ] } },
{ "type": "Feature", "id": "maerkte_opendata.11", "geometry_name": "shape", "properties": { "inhalt": "Markthallen München - Schlacht- und Viehhof", "adresse": "Zenettistraße 10", "link": "https:\/\/stadt.muenchen.de\/infos\/markthallen-muenchen.html", "lebenslage": "Einkaufen und Dienstleistungen", "rubrik": "Großmarkt", "gemeinde": "München" }, "geometry": { "type": "Point", "coordinates": [ 11.556808569901133, 48.123012379222715 ] } },
{ "type": "Feature", "id": "maerkte_opendata.12", "geometry_name": "shape", "properties": { "inhalt": "Markthallen München - Großmarkthalle", "adresse": "Schäftlarnstraße 10", "link": "https:\/\/stadt.muenchen.de\/infos\/markthallen-muenchen.html", "lebenslage": "Einkaufen und Dienstleistungen", "rubrik": "Großmarkt", "gemeinde": "München" }, "geometry": { "type": "Point", "coordinates": [ 11.553633561060359, 48.11965864512743 ] } },
{ "type": "Feature", "id": "maerkte_opendata.13", "geometry_name": "shape", "properties": { "inhalt": "Markthallen München - Gärtnerhalle ", "adresse": "Schäftlarnstraße 10", "link": "https:\/\/stadt.muenchen.de\/infos\/markthallen-muenchen.html", "lebenslage": "Einkaufen und Dienstleistungen", "rubrik": "Großmarkt", "gemeinde": "München" }, "geometry": { "type": "Point", "coordinates": [ 11.552081707832658, 48.118942189256522 ] } },
{ "type": "Feature", "id": "maerkte_opendata.14", "geometry_name": "shape", "properties": { "inhalt": "Großmarktgelände München", "adresse": "Thalkirchner Straße", "link": "https:\/\/stadt.muenchen.de\/infos\/markthallen-muenchen.html", "lebenslage": "Einkaufen und Dienstleistungen", "rubrik": "Großmarkt", "gemeinde": "München" }, "geometry": { "type": "Point", "coordinates": [ 11.554740417369787, 48.117203253900833 ] } },
{ "type": "Feature", "id": "maerkte_opendata.15", "geometry_name": "shape", "properties": { "inhalt": "Blumengroßmarkt - Markthallen München", "adresse": "Schäftlarnstraße 2", "link": "http:\/\/www.blumengrossmarkt-muenchen.de\/", "lebenslage": "Einkaufen und Dienstleistungen", "rubrik": "Großmarkt", "gemeinde": "München" }, "geometry": { "type": "Point", "coordinates": [ 11.556718813022396, 48.118046744288648 ] } },
{ "type": "Feature", "id": "maerkte_opendata.16", "geometry_name": "shape", "properties": { "inhalt": "Pasinger Viktualienmarkt", "adresse": "Bäckerstraße", "link": "http:\/\/www.muenchen.de\/rathaus\/Stadtverwaltung\/Kommunalreferat\/markthallen\/pasingermarkt.html", "lebenslage": "Einkaufen und Dienstleistungen", "rubrik": "Ständiger Markt", "gemeinde": "München" }, "geometry": { "type": "Point", "coordinates": [ 11.461905003682313, 48.147237607333516 ] } },
{ "type": "Feature", "id": "maerkte_opendata.17", "geometry_name": "shape", "properties": { "inhalt": "Wiener Markt (Markt am Wiener Platz)", "adresse": "Wiener Platz", "link": "http:\/\/www.muenchen.de\/rathaus\/Stadtverwaltung\/Kommunalreferat\/markthallen\/wienermarkt.html", "lebenslage": "Einkaufen und Dienstleistungen", "rubrik": "Ständiger Markt", "gemeinde": "München" }, "geometry": { "type": "Point", "coordinates": [ 11.596154171375627, 48.134566781274465 ] } },
{ "type": "Feature", "id": "maerkte_opendata.18", "geometry_name": "shape", "properties": { "inhalt": "Schrannenhalle", "adresse": "Blumenstraße 4", "link": "https:\/\/www.viktualienmarkt-muenchen.de\/schrannenhalle\/", "lebenslage": "Einkaufen und Dienstleistungen", "rubrik": "Ständiger Markt", "gemeinde": "München" }, "geometry": { "type": "Point", "coordinates": [ 11.57458572559732, 48.134415199831537 ] } },
{ "type": "Feature", "id": "maerkte_opendata.19", "geometry_name": "shape", "properties": { "inhalt": "Elisabethmarkt (Markt am Elisabethplatz)", "adresse": "Elisabethplatz", "link": "http:\/\/www.muenchen.de\/rathaus\/Stadtverwaltung\/Kommunalreferat\/markthallen\/elisabethmarkt.html", "lebenslage": "Einkaufen und Dienstleistungen", "rubrik": "Ständiger Markt", "gemeinde": "München" }, "geometry": { "type": "Point", "coordinates": [ 11.574346019383228, 48.156898004473973 ] } },
{ "type": "Feature", "id": "maerkte_opendata.20", "geometry_name": "shape", "properties": { "inhalt": "Viktualienmarkt", "adresse": "Viktualienmarkt (Stadtzentrum)", "link": "http:\/\/www.muenchen.de\/sehenswuerdigkeiten\/orte\/120340.html", "lebenslage": "Einkaufen und Dienstleistungen", "rubrik": "Ständiger Markt", "gemeinde": "München" }, "geometry": { "type": "Point", "coordinates": [ 11.576380509087612, 48.135087379491893 ] } },
{ "type": "Feature", "id": "maerkte_opendata.21", "geometry_name": "shape", "properties": { "inhalt": "Wochenmarkt Messestadt Riem, Öffnungszeiten: Freitag, 10:00 - 18:00", "adresse": "Willy-Brandt-Platz", "link": "https:\/\/www.muenchnerwochenmaerkte.de\/", "lebenslage": "Einkaufen und Dienstleistungen", "rubrik": "Wochenmarkt", "gemeinde": "München" }, "geometry": { "type": "Point", "coordinates": [ 11.691246556101206, 48.132561764058671 ] } },
{ "type": "Feature", "id": "maerkte_opendata.22", "geometry_name": "shape", "properties": { "inhalt": "Wochenmarkt Freimann, Öffnungszeiten: Mittwoch, 13:00 - 18:00", "adresse": "Karl-Köglsbergerstraße  17-23", "link": "http:\/\/www.muenchen.de\/rathaus\/Stadtverwaltung\/Kommunalreferat\/markthallen\/wochenmaerkte.html", "lebenslage": "Einkaufen und Dienstleistungen", "rubrik": "Wochenmarkt", "gemeinde": "München" }, "geometry": { "type": "Point", "coordinates": [ 11.606536884139413, 48.201449483668966 ] } },
{ "type": "Feature", "id": "maerkte_opendata.23", "geometry_name": "shape", "properties": { "inhalt": "Wochenmarkt Großhadern, Öffnungszeiten: Mittwoch, 13:00 - 18:00", "adresse": "Heiglhofstraße 1-11", "link": "https:\/\/www.muenchnerwochenmaerkte.de\/", "lebenslage": "Einkaufen und Dienstleistungen", "rubrik": "Wochenmarkt", "gemeinde": "München" }, "geometry": { "type": "Point", "coordinates": [ 11.478943270488156, 48.114420402595137 ] } },
{ "type": "Feature", "id": "maerkte_opendata.24", "geometry_name": "shape", "properties": { "inhalt": "Wochenmarkt Schwabing-West, Öffnungszeiten: Freitag, 13:00 - 18:00", "adresse": "Petra-Kelly-Straße", "link": "https:\/\/www.muenchnerwochenmaerkte.de\/", "lebenslage": "Einkaufen und Dienstleistungen", "rubrik": "Wochenmarkt", "gemeinde": "München" }, "geometry": { "type": "Point", "coordinates": [ 11.556745659048854, 48.164005593487687 ] } },
{ "type": "Feature", "id": "maerkte_opendata.25", "geometry_name": "shape", "properties": { "inhalt": "Wochenmarkt Untersendling (Resi-Huber-Platz), Öffnungszeiten: Samstag, 07:00 - 13:00", "adresse": "Resi-Huber-Platz", "link": "https:\/\/www.muenchnerwochenmaerkte.de\/", "lebenslage": "Einkaufen und Dienstleistungen", "rubrik": "Wochenmarkt", "gemeinde": "München" }, "geometry": { "type": "Point", "coordinates": [ 11.549380850690847, 48.113523971080092 ] } },
{ "type": "Feature", "id": "maerkte_opendata.26", "geometry_name": "shape", "properties": { "inhalt": "Wochenmarkt Fasangarten, Öffnungszeiten: Mittwoch, 12:00 - 18:00", "adresse": "Cincinnatistraße 31, hinter dem Kino", "link": "https:\/\/www.muenchnerwochenmaerkte.de\/", "lebenslage": "Einkaufen und Dienstleistungen", "rubrik": "Wochenmarkt", "gemeinde": "München" }, "geometry": { "type": "Point", "coordinates": [ 11.594641270878743, 48.091948398521247 ] } },
{ "type": "Feature", "id": "maerkte_opendata.27", "geometry_name": "shape", "properties": { "inhalt": "Wochenmarkt Perlach, Öffnungszeiten: Samstag, 07:00 - 13:00", "adresse": "Pfanzeltplatz", "link": "https:\/\/www.muenchnerwochenmaerkte.de\/", "lebenslage": "Einkaufen und Dienstleistungen", "rubrik": "Wochenmarkt", "gemeinde": "München" }, "geometry": { "type": "Point", "coordinates": [ 11.630857434559985, 48.100440630838591 ] } },
{ "type": "Feature", "id": "maerkte_opendata.28", "geometry_name": "shape", "properties": { "inhalt": "Wochenmarkt Haidhausen, Öffnungszeiten: Dienstag, 08:00 - 12:00", "adresse": "Weißenburger Straße 2-10", "link": "https:\/\/www.muenchnerwochenmaerkte.de\/", "lebenslage": "Einkaufen und Dienstleistungen", "rubrik": "Wochenmarkt", "gemeinde": "München" }, "geometry": { "type": "Point", "coordinates": [ 11.596354587125631, 48.12855081700738 ] } },
{ "type": "Feature", "id": "maerkte_opendata.29", "geometry_name": "shape", "properties": { "inhalt": "Wochenmarkt Schwabing, Öffnungszeiten: Donnerstag, 10:00 - 18:00", "adresse": "Münchner Freiheit", "link": "https:\/\/www.muenchnerwochenmaerkte.de\/", "lebenslage": "Einkaufen und Dienstleistungen", "rubrik": "Wochenmarkt", "gemeinde": "München" }, "geometry": { "type": "Point", "coordinates": [ 11.587142999644907, 48.163414361436118 ] } },
{ "type": "Feature", "id": "maerkte_opendata.30", "geometry_name": "shape", "properties": { "inhalt": "Wochenmarkt Untersendling (Margaretenplatz), Öffnungszeiten: Samstag, 07:00 - 13:00", "adresse": "Margaretenplatz", "link": "https:\/\/www.muenchnerwochenmaerkte.de\/", "lebenslage": "Einkaufen und Dienstleistungen", "rubrik": "Wochenmarkt", "gemeinde": "München" }, "geometry": { "type": "Point", "coordinates": [ 11.539046171977752, 48.120232552347304 ] } },
{ "type": "Feature", "id": "maerkte_opendata.31", "geometry_name": "shape", "properties": { "inhalt": "Wochenmarkt Berg am Laim, Öffnungszeiten: Freitag, 08:00 - 12:00", "adresse": "Baumkirchner Straße 22b-26", "link": "https:\/\/www.muenchnerwochenmaerkte.de\/", "lebenslage": "Einkaufen und Dienstleistungen", "rubrik": "Wochenmarkt", "gemeinde": "München" }, "geometry": { "type": "Point", "coordinates": [ 11.631550289778218, 48.129276954273749 ] } },
{ "type": "Feature", "id": "maerkte_opendata.32", "geometry_name": "shape", "properties": { "inhalt": "Wochenmarkt Feldmoching, Öffnungszeiten: Freitag, 13:00 - 18:00", "adresse": "Walter-Sedlmayr-Platz", "link": "https:\/\/www.muenchnerwochenmaerkte.de\/", "lebenslage": "Einkaufen und Dienstleistungen", "rubrik": "Wochenmarkt", "gemeinde": "München" }, "geometry": { "type": "Point", "coordinates": [ 11.539446045121531, 48.213415063671725 ] } },
{ "type": "Feature", "id": "maerkte_opendata.33", "geometry_name": "shape", "properties": { "inhalt": "Wochenmarkt Au, Öffnungszeiten: Samstag, 07:00 - 13:00", "adresse": "Mariahilfplatz", "link": "http:\/\/www.muenchen.de\/rathaus\/Stadtverwaltung\/Kommunalreferat\/markthallen\/wochenmaerkte.html", "lebenslage": "Einkaufen und Dienstleistungen", "rubrik": "Wochenmarkt", "gemeinde": "München" }, "geometry": { "type": "Point", "coordinates": [ 11.582865118077907, 48.125273735900052 ] } },
{ "type": "Feature", "id": "maerkte_opendata.34", "geometry_name": "shape", "properties": { "inhalt": "Wochenmarkt Moosach, Öffnungszeiten: Donnerstag, 08:00 - 12:00", "adresse": "Bunzlauer Platz", "link": "https:\/\/www.muenchnerwochenmaerkte.de\/", "lebenslage": "Einkaufen und Dienstleistungen", "rubrik": "Wochenmarkt", "gemeinde": "München" }, "geometry": { "type": "Point", "coordinates": [ 11.506349948119919, 48.179217112873637 ] } },
{ "type": "Feature", "id": "maerkte_opendata.35", "geometry_name": "shape", "properties": { "inhalt": "Wochenmarkt Fürstenried-Ost, Öffnungszeiten: Mittwoch, 13:00 - 18:00", "adresse": "Züricher Straße, Ecke Winterthurer Straße", "link": "https:\/\/www.muenchnerwochenmaerkte.de\/", "lebenslage": "Einkaufen und Dienstleistungen", "rubrik": "Wochenmarkt", "gemeinde": "München" }, "geometry": { "type": "Point", "coordinates": [ 11.496128736019463, 48.095235964849344 ] } },
{ "type": "Feature", "id": "maerkte_opendata.36", "geometry_name": "shape", "properties": { "inhalt": "Wochenmarkt Blumenau, Öffnungszeiten: Mittwoch, 08:00 - 12:00", "adresse": "Blumenauer Straße 2-16", "link": "https:\/\/www.muenchnerwochenmaerkte.de\/", "lebenslage": "Einkaufen und Dienstleistungen", "rubrik": "Wochenmarkt", "gemeinde": "München" }, "geometry": { "type": "Point", "coordinates": [ 11.475726062846693, 48.126755599882465 ] } },
{ "type": "Feature", "id": "maerkte_opendata.37", "geometry_name": "shape", "properties": { "inhalt": "Wochenmarkt Neuperlach, Öffnungszeiten: Freitag, 13:00 - 18:00", "adresse": "Theodor-Heuss-Platz", "link": "https:\/\/www.muenchnerwochenmaerkte.de\/", "lebenslage": "Einkaufen und Dienstleistungen", "rubrik": "Wochenmarkt", "gemeinde": "München" }, "geometry": { "type": "Point", "coordinates": [ 11.641151035530015, 48.102398844578616 ] } },
{ "type": "Feature", "id": "maerkte_opendata.38", "geometry_name": "shape", "properties": { "inhalt": "Wochenmarkt Neuhausen (Arnulfpark), Öffnungszeiten: Freitag, 10:00 - 18:00", "adresse": "Rainer-Werner-Fassbinder-Platz", "link": "https:\/\/www.muenchnerwochenmaerkte.de\/", "lebenslage": "Einkaufen und Dienstleistungen", "rubrik": "Wochenmarkt", "gemeinde": "München" }, "geometry": { "type": "Point", "coordinates": [ 11.53746855002483, 48.14391951116373 ] } },
{ "type": "Feature", "id": "maerkte_opendata.39", "geometry_name": "shape", "properties": { "inhalt": "Wochenmarkt Neuhausen, Öffnungszeiten: Donnerstag, 10:00 - 19:00", "adresse": "Rotkreuzplatz ", "link": "https:\/\/www.muenchnerwochenmaerkte.de\/", "lebenslage": "Einkaufen und Dienstleistungen", "rubrik": "Wochenmarkt", "gemeinde": "München" }, "geometry": { "type": "Point", "coordinates": [ 11.53336094519417, 48.152715333706617 ] } },
{ "type": "Feature", "id": "maerkte_opendata.40", "geometry_name": "shape", "properties": { "inhalt": "Wochenmarkt Bogenhausen, Öffnungszeiten: Donnerstag, 08:00 - 18:00", "adresse": "Rosenkavalierplatz", "link": "https:\/\/www.muenchnerwochenmaerkte.de\/", "lebenslage": "Einkaufen und Dienstleistungen", "rubrik": "Wochenmarkt", "gemeinde": "München" }, "geometry": { "type": "Point", "coordinates": [ 11.618887613439892, 48.152478221362294 ] } },
{ "type": "Feature", "id": "maerkte_opendata.41", "geometry_name": "shape", "properties": { "inhalt": "Wochenmarkt Sendling, Öffnungszeiten: Mittwoch, 08:00 - 12:00", "adresse": "Jean-Paul-Richter-Straße 9-19, Ecke Höltystraße", "link": "https:\/\/www.muenchnerwochenmaerkte.de\/", "lebenslage": "Einkaufen und Dienstleistungen", "rubrik": "Wochenmarkt", "gemeinde": "München" }, "geometry": { "type": "Point", "coordinates": [ 11.524531941466313, 48.111468545523451 ] } },
{ "type": "Feature", "id": "maerkte_opendata.42", "geometry_name": "shape", "properties": { "inhalt": "Wochenmarkt Hasenbergl, Öffnungszeiten: Donnerstag, 08:00 - 12:00", "adresse": "Blodigstraße 4", "link": "https:\/\/www.muenchnerwochenmaerkte.de\/", "lebenslage": "Einkaufen und Dienstleistungen", "rubrik": "Wochenmarkt", "gemeinde": "München" }, "geometry": { "type": "Point", "coordinates": [ 11.557079685483831, 48.213473124022734 ] } },
{ "type": "Feature", "id": "maerkte_opendata.43", "geometry_name": "shape", "properties": { "inhalt": "Wochenmarkt Hadern, Öffnungszeiten: Samstag, 07:00 - 13:00", "adresse": "Guardinistraße 90-120", "link": "https:\/\/www.muenchnerwochenmaerkte.de\/", "lebenslage": "Einkaufen und Dienstleistungen", "rubrik": "Wochenmarkt", "gemeinde": "München" }, "geometry": { "type": "Point", "coordinates": [ 11.490477719850142, 48.118630322301144 ] } },
{ "type": "Feature", "id": "maerkte_opendata.44", "geometry_name": "shape", "properties": { "inhalt": "Wochenmarkt Milbertshofen, Öffnungszeiten: Freitag, 13:00 - 18:00", "adresse": "Curt-Mezger-Platz", "link": "https:\/\/www.muenchnerwochenmaerkte.de\/", "lebenslage": "Einkaufen und Dienstleistungen", "rubrik": "Wochenmarkt", "gemeinde": "München" }, "geometry": { "type": "Point", "coordinates": [ 11.567590406315396, 48.182389681980666 ] } },
{ "type": "Feature", "id": "maerkte_opendata.45", "geometry_name": "shape", "properties": { "inhalt": "Wochenmarkt Allach-Untermenzing, Öffnungszeiten: Dienstag, 10:00 - 18:00", "adresse": "Oertelplatz", "link": "https:\/\/www.muenchnerwochenmaerkte.de\/", "lebenslage": "Einkaufen und Dienstleistungen", "rubrik": "Wochenmarkt", "gemeinde": "München" }, "geometry": { "type": "Point", "coordinates": [ 11.466748030904927, 48.190123641314507 ] } },
{ "type": "Feature", "id": "maerkte_opendata.46", "geometry_name": "shape", "properties": { "inhalt": "Wochenmarkt Oberföhring, Öffnungszeiten: Freitag, 08:00 - 12:00", "adresse": "Fritz-Meyer-Weg 38-46 ", "link": "https:\/\/www.muenchnerwochenmaerkte.de\/", "lebenslage": "Einkaufen und Dienstleistungen", "rubrik": "Wochenmarkt", "gemeinde": "München" }, "geometry": { "type": "Point", "coordinates": [ 11.634980551443343, 48.172252837249502 ] } },
{ "type": "Feature", "id": "maerkte_opendata.47", "geometry_name": "shape", "properties": { "inhalt": "Wochenmarkt Giesing, Öffnungszeiten: Freitag, 13:00 - 18:00", "adresse": "Giesinger Bahnhofsplatz", "link": "https:\/\/www.muenchnerwochenmaerkte.de\/", "lebenslage": "Einkaufen und Dienstleistungen", "rubrik": "Wochenmarkt", "gemeinde": "München" }, "geometry": { "type": "Point", "coordinates": [ 11.595098425241165, 48.11046273887527 ] } },
{ "type": "Feature", "id": "maerkte_opendata.48", "geometry_name": "shape", "properties": { "inhalt": "Wochenmarkt Lerchenauer See, Öffnungszeiten: Freitag, 12:00 - 19:00", "adresse": "Lassallestraße\/Franz-Fackler-Straße", "link": "https:\/\/www.muenchnerwochenmaerkte.de\/", "lebenslage": "Einkaufen und Dienstleistungen", "rubrik": "Wochenmarkt", "gemeinde": "München" }, "geometry": { "type": "Point", "coordinates": [ 11.535429035144817, 48.20025549626822 ] } },
{ "type": "Feature", "id": "maerkte_opendata.49", "geometry_name": "shape", "properties": { "inhalt": "Wochenmarkt Trudering, Öffnungszeiten: Freitag, 13:00 - 18:00", "adresse": "Friedenspromenade, (zwischen Hugo-Weiss-Straße und Felicitas-Füss-Straße)", "link": "https:\/\/www.muenchnerwochenmaerkte.de\/", "lebenslage": "Einkaufen und Dienstleistungen", "rubrik": "Wochenmarkt", "gemeinde": "München" }, "geometry": { "type": "Point", "coordinates": [ 11.675872593362378, 48.112326510358557 ] } },
{ "type": "Feature", "id": "maerkte_opendata.50", "geometry_name": "shape", "properties": { "inhalt": "Wochenmarkt Fürstenried-West - Mittwoch, Öffnungszeiten: Mittwoch, 13:00 - 18:00", "adresse": "Schweizer Platz, Ecke Graubündener Straße", "link": "https:\/\/www.muenchnerwochenmaerkte.de\/", "lebenslage": "Einkaufen und Dienstleistungen", "rubrik": "Wochenmarkt", "gemeinde": "München" }, "geometry": { "type": "Point", "coordinates": [ 11.480281082396123, 48.089217598439767 ] } },
{ "type": "Feature", "id": "maerkte_opendata.51", "geometry_name": "shape", "properties": { "inhalt": "Wochenmarkt Solln, Öffnungszeiten: Freitag, 08:00 - 12:00", "adresse": "Fellererplatz", "link": "https:\/\/www.muenchnerwochenmaerkte.de\/", "lebenslage": "Einkaufen und Dienstleistungen", "rubrik": "Wochenmarkt", "gemeinde": "München" }, "geometry": { "type": "Point", "coordinates": [ 11.517967654340588, 48.076766378053634 ] } },
{ "type": "Feature", "id": "maerkte_opendata.52", "geometry_name": "shape", "properties": { "inhalt": "Wochenmarkt Thalkirchen, Öffnungszeiten: Donnerstag, 13:00 - 18:00", "adresse": "Schäftlarnstraße 179", "link": "https:\/\/www.muenchnerwochenmaerkte.de\/", "lebenslage": "Einkaufen und Dienstleistungen", "rubrik": "Wochenmarkt", "gemeinde": "München" }, "geometry": { "type": "Point", "coordinates": [ 11.546877226824467, 48.100683925929701 ] } },
{ "type": "Feature", "id": "maerkte_opendata.53", "geometry_name": "shape", "properties": { "inhalt": "Wochenmarkt Untergiesing, Öffnungszeiten: Donnerstag, 12:00 - 18:00", "adresse": "Hans-Mielich-Platz", "link": "https:\/\/www.muenchnerwochenmaerkte.de\/", "lebenslage": "Einkaufen und Dienstleistungen", "rubrik": "Wochenmarkt", "gemeinde": "München" }, "geometry": { "type": "Point", "coordinates": [ 11.570756786852757, 48.116446282137545 ] } },
{ "type": "Feature", "id": "maerkte_opendata.54", "geometry_name": "shape", "properties": { "inhalt": "Wochenmarkt Aubing-Ost, Öffnungszeiten: Freitag, 13:00 - 18:00", "adresse": "Konstanze-Vernon-Straße, Ecke Monica-Bleibtreu-Straße", "link": "https:\/\/www.muenchnerwochenmaerkte.de\/", "lebenslage": "Einkaufen und Dienstleistungen", "rubrik": "Wochenmarkt", "gemeinde": "München" }, "geometry": { "type": "Point", "coordinates": [ 11.426415303752371, 48.156168493618189 ] } },
{ "type": "Feature", "id": "maerkte_opendata.55", "geometry_name": "shape", "properties": { "inhalt": "Wochenmarkt Obergiesing, Öffnungszeiten: Dienstag, 12:00 -18:00", "adresse": "Ella-Lingens-Platz", "link": "https:\/\/www.muenchnerwochenmaerkte.de\/", "lebenslage": "Einkaufen und Dienstleistungen", "rubrik": "Wochenmarkt", "gemeinde": "München" }, "geometry": { "type": "Point", "coordinates": [ 11.580778447093936, 48.109694861787538 ] } }
]
}
