{
"type": "FeatureCollection",
"totalFeatures": 48,
"numberMatched": 48,
"numberReturned": 48,
"timeStamp": "2024-02-01T12:34:33.819Z",
"name": "Mobilität",
"crs": { "type": "name", "properties": { "name": "urn:ogc:def:crs:OGC:1.3:CRS84" } },
"features": [
{ "type": "Feature", "id": "mobilitaetspunkte.1", "geometry_name": "shape", "properties": { "name": "Am Glockenbach", "carsharing_stellflaechen": 6, "infostele": "ja", "fahrradservicestation": "nein", "mvg_radstation": "ja", "lastenrad_sharing": 0, "mikromobilitaet": "nein", "bemerkung": "bestehend", "x_coord_utm": 691001.34175762755, "y_coord_utm": 5333531.7044557678 }, "geometry": { "type": "Point", "coordinates": [ 11.566861000598582, 48.126361000350236 ] } },
{ "type": "Feature", "id": "mobilitaetspunkte.2", "geometry_name": "shape", "properties": { "name": "Aubing", "carsharing_stellflaechen": 3, "infostele": "ja", "fahrradservicestation": "nein", "mvg_radstation": "nein", "lastenrad_sharing": 0, "mikromobilitaet": "ja", "bemerkung": "bestehend", "x_coord_utm": 680265.46823372412, "y_coord_utm": 5335021.1172268093 }, "geometry": { "type": "Point", "coordinates": [ 11.423349999543143, 48.142879999741041 ] } },
{ "type": "Feature", "id": "mobilitaetspunkte.3", "geometry_name": "shape", "properties": { "name": "Dreimühlenviertel", "carsharing_stellflaechen": 5, "infostele": "ja", "fahrradservicestation": "nein", "mvg_radstation": "nein", "lastenrad_sharing": 0, "mikromobilitaet": "ja", "bemerkung": "bestehend", "x_coord_utm": 690707.27130795887, "y_coord_utm": 5333100.1100071855 }, "geometry": { "type": "Point", "coordinates": [ 11.562719999899784, 48.122569999903448 ] } },
{ "type": "Feature", "id": "mobilitaetspunkte.4", "geometry_name": "shape", "properties": { "name": "Ella-Lingens-Platz", "carsharing_stellflaechen": 6, "infostele": "ja", "fahrradservicestation": "nein", "mvg_radstation": "nein", "lastenrad_sharing": 0, "mikromobilitaet": "ja", "bemerkung": "bestehend", "x_coord_utm": 692062.05662617413, "y_coord_utm": 5331731.2911432758 }, "geometry": { "type": "Point", "coordinates": [ 11.580289999639431, 48.109859999583584 ] } },
{ "type": "Feature", "id": "mobilitaetspunkte.5", "geometry_name": "shape", "properties": { "name": "Falkenstraße", "carsharing_stellflaechen": 6, "infostele": "ja", "fahrradservicestation": "nein", "mvg_radstation": "nein", "lastenrad_sharing": 1, "mikromobilitaet": "ja", "bemerkung": "bestehend", "x_coord_utm": 691989.58215010713, "y_coord_utm": 5333225.3208887372 }, "geometry": { "type": "Point", "coordinates": [ 11.579990000684999, 48.123310000050829 ] } },
{ "type": "Feature", "id": "mobilitaetspunkte.6", "geometry_name": "shape", "properties": { "name": "Freiham ", "carsharing_stellflaechen": 3, "infostele": "ja", "fahrradservicestation": "nein", "mvg_radstation": "nein", "lastenrad_sharing": 0, "mikromobilitaet": "ja", "bemerkung": "bestehend", "x_coord_utm": 679357.38547990855, "y_coord_utm": 5334608.7628880711 }, "geometry": { "type": "Point", "coordinates": [ 11.410980000282098, 48.139430000074576 ] } },
{ "type": "Feature", "id": "mobilitaetspunkte.7", "geometry_name": "shape", "properties": { "name": "Freimann", "carsharing_stellflaechen": 2, "infostele": "ja", "fahrradservicestation": "nein", "mvg_radstation": "nein", "lastenrad_sharing": 0, "mikromobilitaet": "ja", "bemerkung": "bestehend", "x_coord_utm": 694313.66467660142, "y_coord_utm": 5340806.3495302033 }, "geometry": { "type": "Point", "coordinates": [ 11.614650000311435, 48.190739999683828 ] } },
{ "type": "Feature", "id": "mobilitaetspunkte.8", "geometry_name": "shape", "properties": { "name": "Friedenspromenade", "carsharing_stellflaechen": 4, "infostele": "ja", "fahrradservicestation": "nein", "mvg_radstation": "nein", "lastenrad_sharing": 1, "mikromobilitaet": "ja", "bemerkung": "bestehend", "x_coord_utm": 699231.04045389884, "y_coord_utm": 5332296.74557258 }, "geometry": { "type": "Point", "coordinates": [ 11.676760000643648, 48.112740000190534 ] } },
{ "type": "Feature", "id": "mobilitaetspunkte.9", "geometry_name": "shape", "properties": { "name": "Galeriestraße", "carsharing_stellflaechen": 7, "infostele": "ja", "fahrradservicestation": "nein", "mvg_radstation": "nein", "lastenrad_sharing": 0, "mikromobilitaet": "ja", "bemerkung": "bestehend", "x_coord_utm": 691817.77238728572, "y_coord_utm": 5335549.369086571 }, "geometry": { "type": "Point", "coordinates": [ 11.57873000018691, 48.144250000081541 ] } },
{ "type": "Feature", "id": "mobilitaetspunkte.10", "geometry_name": "shape", "properties": { "name": "Ganghoferstraße", "carsharing_stellflaechen": 7, "infostele": "ja", "fahrradservicestation": "nein", "mvg_radstation": "nein", "lastenrad_sharing": 0, "mikromobilitaet": "ja", "bemerkung": "bestehend", "x_coord_utm": 689018.41303070285, "y_coord_utm": 5334771.9121060269 }, "geometry": { "type": "Point", "coordinates": [ 11.540789999594448, 48.138099999921764 ] } },
{ "type": "Feature", "id": "mobilitaetspunkte.11", "geometry_name": "shape", "properties": { "name": "Georg-Freundorfer-Platz", "carsharing_stellflaechen": 8, "infostele": "ja", "fahrradservicestation": "nein", "mvg_radstation": "nein", "lastenrad_sharing": 1, "mikromobilitaet": "ja", "bemerkung": "bestehend", "x_coord_utm": 688994.17959911062, "y_coord_utm": 5334288.2516835332 }, "geometry": { "type": "Point", "coordinates": [ 11.540250000028657, 48.133760000114584 ] } },
{ "type": "Feature", "id": "mobilitaetspunkte.12", "geometry_name": "shape", "properties": { "name": "Gertrud-Grunow-Straße", "carsharing_stellflaechen": 13, "infostele": "ja", "fahrradservicestation": "ja", "mvg_radstation": "ja", "lastenrad_sharing": 0, "mikromobilitaet": "ja", "bemerkung": "bestehend", "x_coord_utm": 692996.81219422212, "y_coord_utm": 5339999.4096186822 }, "geometry": { "type": "Point", "coordinates": [ 11.596583000079573, 48.183888999793886 ] } },
{ "type": "Feature", "id": "mobilitaetspunkte.13", "geometry_name": "shape", "properties": { "name": "Giesinger Bahnhof", "carsharing_stellflaechen": 6, "infostele": "ja", "fahrradservicestation": "nein", "mvg_radstation": "ja", "lastenrad_sharing": 0, "mikromobilitaet": "ja", "bemerkung": "bestehend", "x_coord_utm": 693154.9435395723, "y_coord_utm": 5331870.420698747 }, "geometry": { "type": "Point", "coordinates": [ 11.595019999479955, 48.110779999987038 ] } },
{ "type": "Feature", "id": "mobilitaetspunkte.14", "geometry_name": "shape", "properties": { "name": "Goetheplatz", "carsharing_stellflaechen": 4, "infostele": "ja", "fahrradservicestation": "ja", "mvg_radstation": "ja", "lastenrad_sharing": 0, "mikromobilitaet": "ja", "bemerkung": "bestehend", "x_coord_utm": 690354.33072713215, "y_coord_utm": 5333825.3406816674 }, "geometry": { "type": "Point", "coordinates": [ 11.558305999653665, 48.129194000138746 ] } },
{ "type": "Feature", "id": "mobilitaetspunkte.15", "geometry_name": "shape", "properties": { "name": "Heimeranplatz", "carsharing_stellflaechen": 6, "infostele": "ja", "fahrradservicestation": "nein", "mvg_radstation": "ja", "lastenrad_sharing": 1, "mikromobilitaet": "ja", "bemerkung": "bestehend", "x_coord_utm": 688515.15183575591, "y_coord_utm": 5334270.2201324496 }, "geometry": { "type": "Point", "coordinates": [ 11.533809999514832, 48.133739999686135 ] } },
{ "type": "Feature", "id": "mobilitaetspunkte.16", "geometry_name": "shape", "properties": { "name": "Hermine-von-Parish-Str.", "carsharing_stellflaechen": 6, "infostele": "ja", "fahrradservicestation": "nein", "mvg_radstation": "nein", "lastenrad_sharing": 0, "mikromobilitaet": "ja", "bemerkung": "bestehend", "x_coord_utm": 684179.09298392723, "y_coord_utm": 5335965.7518561911 }, "geometry": { "type": "Point", "coordinates": [ 11.476320000243124, 48.150250000359193 ] } },
{ "type": "Feature", "id": "mobilitaetspunkte.17", "geometry_name": "shape", "properties": { "name": "Jean-Paul-Richter-Straße", "carsharing_stellflaechen": 4, "infostele": "ja", "fahrradservicestation": "nein", "mvg_radstation": "nein", "lastenrad_sharing": 1, "mikromobilitaet": "ja", "bemerkung": "bestehend", "x_coord_utm": 687955.04680092842, "y_coord_utm": 5331799.6970195621 }, "geometry": { "type": "Point", "coordinates": [ 11.525199999988084, 48.11169999979213 ] } },
{ "type": "Feature", "id": "mobilitaetspunkte.18", "geometry_name": "shape", "properties": { "name": "Karl-Marx-Zentrum", "carsharing_stellflaechen": 6, "infostele": "ja", "fahrradservicestation": "nein", "mvg_radstation": "nein", "lastenrad_sharing": 0, "mikromobilitaet": "ja", "bemerkung": "bestehend", "x_coord_utm": 697734.11267842515, "y_coord_utm": 5331712.9808209296 }, "geometry": { "type": "Point", "coordinates": [ 11.656400000291541, 48.107959999765114 ] } },
{ "type": "Feature", "id": "mobilitaetspunkte.19", "geometry_name": "shape", "properties": { "name": "Karl-Weinmair-Straße", "carsharing_stellflaechen": 7, "infostele": "ja", "fahrradservicestation": "ja", "mvg_radstation": "ja", "lastenrad_sharing": 0, "mikromobilitaet": "ja", "bemerkung": "bestehend", "x_coord_utm": 692424.50195491372, "y_coord_utm": 5339504.111416826 }, "geometry": { "type": "Point", "coordinates": [ 11.588667000608536, 48.179610999799152 ] } },
{ "type": "Feature", "id": "mobilitaetspunkte.20", "geometry_name": "shape", "properties": { "name": "Kidlerplatz", "carsharing_stellflaechen": 7, "infostele": "ja", "fahrradservicestation": "nein", "mvg_radstation": "ja", "lastenrad_sharing": 0, "mikromobilitaet": "nein", "bemerkung": "bestehend", "x_coord_utm": 689155.01420026459, "y_coord_utm": 5332425.7699329006 }, "geometry": { "type": "Point", "coordinates": [ 11.541582999991306, 48.116971999671172 ] } },
{ "type": "Feature", "id": "mobilitaetspunkte.21", "geometry_name": "shape", "properties": { "name": "Knöbelstraße", "carsharing_stellflaechen": 7, "infostele": "ja", "fahrradservicestation": "nein", "mvg_radstation": "nein", "lastenrad_sharing": 1, "mikromobilitaet": "ja", "bemerkung": "bestehend", "x_coord_utm": 692251.20385549543, "y_coord_utm": 5334661.5912901545 }, "geometry": { "type": "Point", "coordinates": [ 11.584150000612247, 48.136140000039426 ] } },
{ "type": "Feature", "id": "mobilitaetspunkte.22", "geometry_name": "shape", "properties": { "name": "Kolumbusplatz", "carsharing_stellflaechen": 7, "infostele": "ja", "fahrradservicestation": "nein", "mvg_radstation": "ja", "lastenrad_sharing": 1, "mikromobilitaet": "ja", "bemerkung": "bestehend", "x_coord_utm": 691729.00882443157, "y_coord_utm": 5332887.2523109755 }, "geometry": { "type": "Point", "coordinates": [ 11.576339999677208, 48.120349999873582 ] } },
{ "type": "Feature", "id": "mobilitaetspunkte.23", "geometry_name": "shape", "properties": { "name": "Marianne-Brandt-Straße", "carsharing_stellflaechen": 11, "infostele": "ja", "fahrradservicestation": "nein", "mvg_radstation": "ja", "lastenrad_sharing": 0, "mikromobilitaet": "ja", "bemerkung": "bestehend", "x_coord_utm": 692781.2250926136, "y_coord_utm": 5339652.105773462 }, "geometry": { "type": "Point", "coordinates": [ 11.593528000121651, 48.18083300020001 ] } },
{ "type": "Feature", "id": "mobilitaetspunkte.24", "geometry_name": "shape", "properties": { "name": "Max-Bill-Straße", "carsharing_stellflaechen": 7, "infostele": "ja", "fahrradservicestation": "nein", "mvg_radstation": "ja", "lastenrad_sharing": 0, "mikromobilitaet": "ja", "bemerkung": "bestehend", "x_coord_utm": 692731.36379852833, "y_coord_utm": 5340333.4694025191 }, "geometry": { "type": "Point", "coordinates": [ 11.59316700002897, 48.18697199994066 ] } },
{ "type": "Feature", "id": "mobilitaetspunkte.25", "geometry_name": "shape", "properties": { "name": "Maximiliansplatz", "carsharing_stellflaechen": 4, "infostele": "ja", "fahrradservicestation": "nein", "mvg_radstation": "nein", "lastenrad_sharing": 0, "mikromobilitaet": "ja", "bemerkung": "bestehend", "x_coord_utm": 691435.46638104739, "y_coord_utm": 5335336.2874686411 }, "geometry": { "type": "Point", "coordinates": [ 11.57350000027863, 48.142450000241119 ] } },
{ "type": "Feature", "id": "mobilitaetspunkte.26", "geometry_name": "shape", "properties": { "name": "Messestadt West", "carsharing_stellflaechen": 6, "infostele": "ja", "fahrradservicestation": "nein", "mvg_radstation": "ja", "lastenrad_sharing": 0, "mikromobilitaet": "ja", "bemerkung": "bestehend", "x_coord_utm": 700112.82941868901, "y_coord_utm": 5334610.7841258254 }, "geometry": { "type": "Point", "coordinates": [ 11.689679999749353, 48.133259999731351 ] } },
{ "type": "Feature", "id": "mobilitaetspunkte.27", "geometry_name": "shape", "properties": { "name": "Münchner Freiheit", "carsharing_stellflaechen": 6, "infostele": "ja", "fahrradservicestation": "ja", "mvg_radstation": "ja", "lastenrad_sharing": 0, "mikromobilitaet": "nein", "bemerkung": "bestehend", "x_coord_utm": 692330.75093882415, "y_coord_utm": 5337609.3759439988 }, "geometry": { "type": "Point", "coordinates": [ 11.586549999468771, 48.162609999580475 ] } },
{ "type": "Feature", "id": "mobilitaetspunkte.28", "geometry_name": "shape", "properties": { "name": "Nestroystraße", "carsharing_stellflaechen": 5, "infostele": "ja", "fahrradservicestation": "nein", "mvg_radstation": "nein", "lastenrad_sharing": 1, "mikromobilitaet": "ja", "bemerkung": "bestehend", "x_coord_utm": 688621.95847555227, "y_coord_utm": 5332905.2755877431 }, "geometry": { "type": "Point", "coordinates": [ 11.534640000342931, 48.121440000070102 ] } },
{ "type": "Feature", "id": "mobilitaetspunkte.29", "geometry_name": "shape", "properties": { "name": "Neuaubing", "carsharing_stellflaechen": 3, "infostele": "ja", "fahrradservicestation": "nein", "mvg_radstation": "nein", "lastenrad_sharing": 0, "mikromobilitaet": "ja", "bemerkung": "bestehend", "x_coord_utm": 679536.04874755256, "y_coord_utm": 5336412.1286623674 }, "geometry": { "type": "Point", "coordinates": [ 11.41413999938433, 48.155590000324558 ] } },
{ "type": "Feature", "id": "mobilitaetspunkte.30", "geometry_name": "shape", "properties": { "name": "Oberanger", "carsharing_stellflaechen": 5, "infostele": "ja", "fahrradservicestation": "nein", "mvg_radstation": "nein", "lastenrad_sharing": 1, "mikromobilitaet": "ja", "bemerkung": "bestehend", "x_coord_utm": 691232.74755388335, "y_coord_utm": 5334406.0414545452 }, "geometry": { "type": "Point", "coordinates": [ 11.570360000649579, 48.134150000359867 ] } },
{ "type": "Feature", "id": "mobilitaetspunkte.31", "geometry_name": "shape", "properties": { "name": "Pacellistraße", "carsharing_stellflaechen": 6, "infostele": "ja", "fahrradservicestation": "nein", "mvg_radstation": "nein", "lastenrad_sharing": 0, "mikromobilitaet": "ja", "bemerkung": "bestehend", "x_coord_utm": 691205.13702234521, "y_coord_utm": 5335120.5240443917 }, "geometry": { "type": "Point", "coordinates": [ 11.570309999689961, 48.140579999572893 ] } },
{ "type": "Feature", "id": "mobilitaetspunkte.32", "geometry_name": "shape", "properties": { "name": "Pasinger Marienplatz", "carsharing_stellflaechen": 4, "infostele": "ja", "fahrradservicestation": "nein", "mvg_radstation": "nein", "lastenrad_sharing": 0, "mikromobilitaet": "ja", "bemerkung": "bestehend", "x_coord_utm": 682976.38758553576, "y_coord_utm": 5335535.5289893905 }, "geometry": { "type": "Point", "coordinates": [ 11.459980000206846, 48.14673000006205 ] } },
{ "type": "Feature", "id": "mobilitaetspunkte.33", "geometry_name": "shape", "properties": { "name": "Perlach Bahnhof", "carsharing_stellflaechen": 2, "infostele": "ja", "fahrradservicestation": "nein", "mvg_radstation": "nein", "lastenrad_sharing": 0, "mikromobilitaet": "ja", "bemerkung": "bestehend", "x_coord_utm": 695860.8339863806, "y_coord_utm": 5330118.6920566773 }, "geometry": { "type": "Point", "coordinates": [ 11.630530000213797, 48.094210000346798 ] } },
{ "type": "Feature", "id": "mobilitaetspunkte.34", "geometry_name": "shape", "properties": { "name": "Plettstraße", "carsharing_stellflaechen": 4, "infostele": "ja", "fahrradservicestation": "nein", "mvg_radstation": "nein", "lastenrad_sharing": 0, "mikromobilitaet": "ja", "bemerkung": "bestehend", "x_coord_utm": 696587.12688905385, "y_coord_utm": 5331543.3002021573 }, "geometry": { "type": "Point", "coordinates": [ 11.640930000157297, 48.106789999938165 ] } },
{ "type": "Feature", "id": "mobilitaetspunkte.35", "geometry_name": "shape", "properties": { "name": "Quiddestraße", "carsharing_stellflaechen": 4, "infostele": "ja", "fahrradservicestation": "nein", "mvg_radstation": "nein", "lastenrad_sharing": 0, "mikromobilitaet": "ja", "bemerkung": "bestehend", "x_coord_utm": 697008.18770805013, "y_coord_utm": 5331564.4490732467 }, "geometry": { "type": "Point", "coordinates": [ 11.646589999915848, 48.106850000203501 ] } },
{ "type": "Feature", "id": "mobilitaetspunkte.36", "geometry_name": "shape", "properties": { "name": "Rindermarkt", "carsharing_stellflaechen": 0, "infostele": "ja", "fahrradservicestation": "nein", "mvg_radstation": "nein", "lastenrad_sharing": 0, "mikromobilitaet": "ja", "bemerkung": "bestehend", "x_coord_utm": 691517.67279626732, "y_coord_utm": 5334638.0957313087 }, "geometry": { "type": "Point", "coordinates": [ 11.574290000046082, 48.136149999682431 ] } },
{ "type": "Feature", "id": "mobilitaetspunkte.37", "geometry_name": "shape", "properties": { "name": "Rotkreuzplatz", "carsharing_stellflaechen": 7, "infostele": "ja", "fahrradservicestation": "nein", "mvg_radstation": "ja", "lastenrad_sharing": 0, "mikromobilitaet": "ja", "bemerkung": "bestehend", "x_coord_utm": 688329.93018054334, "y_coord_utm": 5336411.3866381878 }, "geometry": { "type": "Point", "coordinates": [ 11.532270000253689, 48.153039999618251 ] } },
{ "type": "Feature", "id": "mobilitaetspunkte.38", "geometry_name": "shape", "properties": { "name": "Schlotthauerstraße", "carsharing_stellflaechen": 8, "infostele": "ja", "fahrradservicestation": "nein", "mvg_radstation": "nein", "lastenrad_sharing": 1, "mikromobilitaet": "ja", "bemerkung": "bestehend", "x_coord_utm": 691665.60371832398, "y_coord_utm": 5333201.1090278979 }, "geometry": { "type": "Point", "coordinates": [ 11.575629999751555, 48.123189999719671 ] } },
{ "type": "Feature", "id": "mobilitaetspunkte.39", "geometry_name": "shape", "properties": { "name": "Schluderstraße", "carsharing_stellflaechen": 4, "infostele": "ja", "fahrradservicestation": "nein", "mvg_radstation": "nein", "lastenrad_sharing": 0, "mikromobilitaet": "ja", "bemerkung": "bestehend", "x_coord_utm": 688063.30325495126, "y_coord_utm": 5336097.7639820697 }, "geometry": { "type": "Point", "coordinates": [ 11.528550000622179, 48.150300000115294 ] } },
{ "type": "Feature", "id": "mobilitaetspunkte.40", "geometry_name": "shape", "properties": { "name": "St.-Jakobs-Platz", "carsharing_stellflaechen": 7, "infostele": "ja", "fahrradservicestation": "nein", "mvg_radstation": "nein", "lastenrad_sharing": 0, "mikromobilitaet": "ja", "bemerkung": "bestehend", "x_coord_utm": 691437.03277758311, "y_coord_utm": 5334377.2711408846 }, "geometry": { "type": "Point", "coordinates": [ 11.573090000292638, 48.133829999590816 ] } },
{ "type": "Feature", "id": "mobilitaetspunkte.41", "geometry_name": "shape", "properties": { "name": "Troppauer Straße", "carsharing_stellflaechen": 3, "infostele": "ja", "fahrradservicestation": "nein", "mvg_radstation": "nein", "lastenrad_sharing": 0, "mikromobilitaet": "ja", "bemerkung": "bestehend", "x_coord_utm": 691151.45104753703, "y_coord_utm": 5341195.8188763112 }, "geometry": { "type": "Point", "coordinates": [ 11.572319999381554, 48.195200000192173 ] } },
{ "type": "Feature", "id": "mobilitaetspunkte.42", "geometry_name": "shape", "properties": { "name": "Trudering Bahnhof Süd", "carsharing_stellflaechen": 4, "infostele": "ja", "fahrradservicestation": "nein", "mvg_radstation": "nein", "lastenrad_sharing": 1, "mikromobilitaet": "ja", "bemerkung": "bestehend", "x_coord_utm": 698260.65344640962, "y_coord_utm": 5333614.9664627546 }, "geometry": { "type": "Point", "coordinates": [ 11.664349999406205, 48.124890000308532 ] } },
{ "type": "Feature", "id": "mobilitaetspunkte.43", "geometry_name": "shape", "properties": { "name": "Truderinger Straße", "carsharing_stellflaechen": 3, "infostele": "ja", "fahrradservicestation": "nein", "mvg_radstation": "nein", "lastenrad_sharing": 1, "mikromobilitaet": "ja", "bemerkung": "bestehend", "x_coord_utm": 698802.65726415033, "y_coord_utm": 5333259.9077980565 }, "geometry": { "type": "Point", "coordinates": [ 11.671460000494124, 48.121529999965141 ] } },
{ "type": "Feature", "id": "mobilitaetspunkte.44", "geometry_name": "shape", "properties": { "name": "Untersbergstraße", "carsharing_stellflaechen": 4, "infostele": "ja", "fahrradservicestation": "nein", "mvg_radstation": "ja", "lastenrad_sharing": 0, "mikromobilitaet": "ja", "bemerkung": "bestehend", "x_coord_utm": 692579.10891148786, "y_coord_utm": 5332021.2513001859 }, "geometry": { "type": "Point", "coordinates": [ 11.587359999856059, 48.112309999966051 ] } },
{ "type": "Feature", "id": "mobilitaetspunkte.45", "geometry_name": "shape", "properties": { "name": "Westend", "carsharing_stellflaechen": 4, "infostele": "ja", "fahrradservicestation": "nein", "mvg_radstation": "nein", "lastenrad_sharing": 1, "mikromobilitaet": "ja", "bemerkung": "bestehend", "x_coord_utm": 688309.0659462905, "y_coord_utm": 5334716.2490225341 }, "geometry": { "type": "Point", "coordinates": [ 11.531239999377675, 48.13780999977849 ] } },
{ "type": "Feature", "id": "mobilitaetspunkte.46", "geometry_name": "shape", "properties": { "name": "Westenriederstraße", "carsharing_stellflaechen": 5, "infostele": "ja", "fahrradservicestation": "nein", "mvg_radstation": "nein", "lastenrad_sharing": 0, "mikromobilitaet": "ja", "bemerkung": "bestehend", "x_coord_utm": 691904.96178332018, "y_coord_utm": 5334526.4638613667 }, "geometry": { "type": "Point", "coordinates": [ 11.579440000251504, 48.135030000306863 ] } },
{ "type": "Feature", "id": "mobilitaetspunkte.47", "geometry_name": "shape", "properties": { "name": "Westkreuz", "carsharing_stellflaechen": 3, "infostele": "ja", "fahrradservicestation": "nein", "mvg_radstation": "nein", "lastenrad_sharing": 0, "mikromobilitaet": "ja", "bemerkung": "bestehend", "x_coord_utm": 681648.07560741378, "y_coord_utm": 5335632.2399177356 }, "geometry": { "type": "Point", "coordinates": [ 11.442179999900574, 48.147979999814346 ] } },
{ "type": "Feature", "id": "mobilitaetspunkte.48", "geometry_name": "shape", "properties": { "name": "Zenettiplatz", "carsharing_stellflaechen": 5, "infostele": "ja", "fahrradservicestation": "nein", "mvg_radstation": "ja", "lastenrad_sharing": 0, "mikromobilitaet": "ja", "bemerkung": "bestehend", "x_coord_utm": 690179.31370522082, "y_coord_utm": 5333300.3851421969 }, "geometry": { "type": "Point", "coordinates": [ 11.55572199992079, 48.124527999588302 ] } }
]
}
